NORAD_CAT_ID,OBJECT_NAME,OBJECT_TYPE,EPOCH,MEAN_MOTION,ECCENTRICITY,INCLINATION,RA_OF_ASC_NODE,ARG_OF_PERICENTER,MEAN_ANOMALY,BSTAR,MEAN_MOTION_DOT,MEAN_MOTION_DDOT,TLE_LINE0,TLE_LINE1,TLE_LINE2,SEMIMAJOR_AXIS,PERIOD,APOGEE,PERIGEE,DECAYED
53864.0,STARLINK-4779,PAYLOAD,2023-09-21 15:46:01,15.0886109,0.0001346,53.2172,4.0926,61.0531,299.0596,0.0015344,0.0002423,0.0,0 STARLINK-4779,1 53864U 22114AY  23264.65696619  .00024230  00000-0  15344-2 0  9991,2 53864  53.2172   4.0926 0001346  61.0531 299.0596 15.08861090 56705,6917.816,95.436,540.612,538.75,0.0
53864.0,STARLINK-4779,PAYLOAD,2023-09-22 10:50:39,15.0886157,0.000136,53.2163,0.5239,98.6136,261.501,0.0012163,0.00019134,0.0,0 STARLINK-4779,1 53864U 22114AY  23265.45184170  .00019134  00000-0  12163-2 0  9997,2 53864  53.2163   0.5239 0001360  98.6136 261.5010 15.08861570 56827,6917.814,95.436,540.62,538.739,0.0
53864.0,STARLINK-4779,PAYLOAD,2023-09-22 12:26:02,15.08864693,0.0001294,53.2166,0.2268,119.3209,240.7912,0.0014539,0.00022942,0.0,0 STARLINK-4779,1 53864U 22114AY  23265.51807971  .00022942  00000-0  14539-2 0  9995,2 53864  53.2166   0.2268 0001294 119.3209 240.7912 15.08864693 57377,6917.805,95.436,540.565,538.775,0.0
53864.0,STARLINK-4779,PAYLOAD,2023-09-22 14:01:25,15.08868457,0.0001344,53.2164,359.9296,60.1295,299.9831,0.0016728,0.00026456,0.0,0 STARLINK-4779,1 53864U 22114AY  23265.58432132  .00026456  00000-0  16728-2 0  9991,2 53864  53.2164 359.9296 0001344  60.1295 299.9831 15.08868457 57383,6917.793,95.436,540.588,538.729,0.0
53864.0,STARLINK-4779,PAYLOAD,2023-09-22 23:33:44,15.08857591,0.0001337,53.2164,358.1452,68.891,291.2225,0.001834,0.00029035,0.0,0 STARLINK-4779,1 53864U 22114AY  23265.98176034  .00029035  00000-0  18340-2 0  9999,2 53864  53.2164 358.1452 0001337  68.8910 291.2225 15.08857591 56905,6917.827,95.436,540.617,538.767,0.0
53864.0,STARLINK-4779,PAYLOAD,2023-09-23 12:16:49,15.08852135,0.0001243,53.2163,355.7662,76.7541,283.359,0.0015999,0.00025275,0.0,0 STARLINK-4779,1 53864U 22114AY  23266.51167975  .00025275  00000-0  15999-2 0  9992,2 53864  53.2163 355.7662 0001243  76.7541 283.3590 15.08852135 56988,6917.843,95.437,540.568,538.848,0.0
53864.0,STARLINK-4779,PAYLOAD,2023-09-24 10:32:13,15.08846564,0.0001631,53.2166,351.6013,104.802,255.3153,0.00058924,9.104e-05,0.0,0 STARLINK-4779,1 53864U 22114AY  23267.43903971  .00009104  00000-0  58924-3 0  9997,2 53864  53.2166 351.6013 0001631 104.8020 255.3153 15.08846564 57122,6917.86,95.437,540.854,538.597,0.0
53864.0,STARLINK-4779,PAYLOAD,2023-09-24 12:07:36,15.0884571,0.0001645,53.2168,351.3062,74.61,285.5073,0.00040861,6.222e-05,0.0,0 STARLINK-4779,1 53864U 22114AY  23267.50528130  .00006222  00000-0  40861-3 0  9994,2 53864  53.2168 351.3062 0001645  74.6100 285.5073 15.08845710 57671,6917.863,95.437,540.866,538.59,0.0
53864.0,STARLINK-4779,PAYLOAD,2023-09-25 08:47:37,15.08848901,0.0001389,53.2165,347.4411,78.6898,281.425,0.00034715,5.243e-05,0.0,0 STARLINK-4779,1 53864U 22114AY  23268.36640090  .00005243  00000-0  34715-3 0  9992,2 53864  53.2165 347.4411 0001389  78.6898 281.4250 15.08848901 57267,6917.853,95.437,540.679,538.757,0.0
53864.0,STARLINK-4779,PAYLOAD,2023-09-25 11:58:23,15.08850822,0.0001646,53.2182,346.8467,98.4114,261.7065,0.00038005,5.767e-05,0.0,0 STARLINK-4779,1 53864U 22114AY  23268.49887934  .00005767  00000-0  38005-3 0  9993,2 53864  53.2182 346.8467 0001646  98.4114 261.7065 15.08850822 57829,6917.847,95.437,540.851,538.574,0.0
53864.0,STARLINK-4779,PAYLOAD,2023-09-26 10:13:47,15.08841024,0.0001415,53.2172,342.6804,89.6145,270.5009,0.00013273,1.825e-05,0.0,0 STARLINK-4779,1 53864U 22114AY  23269.42624208  .00001825  00000-0  13273-3 0  9991,2 53864  53.2172 342.6804 0001415  89.6145 270.5009 15.08841024 57423,6917.877,95.437,540.721,538.763,0.0
53864.0,STARLINK-4779,PAYLOAD,2023-09-27 11:39:57,15.08847473,0.000143,53.2166,337.9252,79.8109,280.3044,0.00023319,3.426e-05,0.0,0 STARLINK-4779,1 53864U 22114AY  23270.48608203  .00003426  00000-0  23319-3 0  9997,2 53864  53.2166 337.9252 0001430  79.8109 280.3044 15.08847473 58128,6917.858,95.437,540.712,538.733,0.0
53864.0,STARLINK-4779,PAYLOAD,2023-09-28 11:30:45,15.08834668,0.0001527,53.2167,333.4651,76.5923,283.5239,4.7803e-05,4.73e-06,0.0,0 STARLINK-4779,1 53864U 22114AY  23271.47969132  .00000473  00000-0  47803-4 0  9992,2 53864  53.2167 333.4651 0001527  76.5923 283.5239 15.08834668 57737,6917.897,95.438,540.818,538.705,0.0
53864.0,STARLINK-4779,PAYLOAD,2023-09-28 14:41:31,15.08838462,0.0001504,53.2164,332.8697,75.3054,284.8104,0.00012887,1.764e-05,0.0,0 STARLINK-4779,1 53864U 22114AY  23271.61217042  .00001764  00000-0  12887-3 0  9991,2 53864  53.2164 332.8697 0001504  75.3054 284.8104 15.08838462 58297,6917.885,95.438,540.791,538.71,0.0
53864.0,STARLINK-4779,PAYLOAD,2023-09-28 22:38:26,15.088549,0.0001745,53.2165,331.3829,84.8566,275.2625,-0.00052821,-8.688e-05,0.0,0 STARLINK-4779,1 53864U 22114AY  23271.94336300 -.00008688  00000-0 -52821-3 0  9992,2 53864  53.2165 331.3829 0001745  84.8566 275.2625 15.08854900 57802,6917.835,95.437,540.907,538.493,0.0
53864.0,STARLINK-4779,PAYLOAD,2023-09-29 12:56:55,15.08849423,0.0001507,53.2162,328.7064,83.1789,276.9374,0.00033275,5.013e-05,0.0,0 STARLINK-4779,1 53864U 22114AY  23272.53952914  .00005013  00000-0  33275-3 0  9992,2 53864  53.2162 328.7064 0001507  83.1789 276.9374 15.08849423 57897,6917.852,95.437,540.759,538.674,0.0
53864.0,STARLINK-4779,PAYLOAD,2023-10-01 03:06:10,15.08846637,0.0001621,53.2156,321.5723,87.9206,272.1972,-4.1302e-05,-9.45e-06,0.0,0 STARLINK-4779,1 53864U 22114AY  23274.12928252 -.00000945  00000-0 -41302-4 0  9999,2 53864  53.2156 321.5723 0001621  87.9206 272.1972 15.08846637 58130,6917.86,95.437,540.846,538.604,0.0
53864.0,STARLINK-4779,PAYLOAD,2023-10-01 09:27:42,15.08843673,0.000149,53.2166,320.3811,98.2623,261.8538,2.7705e-05,1.53e-06,0.0,0 STARLINK-4779,1 53864U 22114AY  23274.39424473  .00000153  00000-0  27705-4 0  9994,2 53864  53.2166 320.3811 0001490  98.2623 261.8538 15.08843673 58712,6917.869,95.437,540.765,538.703,0.0
53864.0,STARLINK-4779,PAYLOAD,2023-10-01 20:35:24,15.0883662,0.0001629,53.2166,318.296,91.0435,269.0744,-9.2655e-05,-1.762e-05,0.0,0 STARLINK-4779,1 53864U 22114AY  23274.85792785 -.00001762  00000-0 -92655-4 0  9994,2 53864  53.2166 318.2960 0001629  91.0435 269.0744 15.08836620 58789,6917.891,95.438,540.883,538.629,0.0
53864.0,STARLINK-4779,PAYLOAD,2023-10-02 02:56:57,15.08834664,0.0001703,53.2164,317.1084,94.8538,265.2649,-0.0001519,-2.704e-05,0.0,0 STARLINK-4779,1 53864U 22114AY  23275.12289024 -.00002704  00000-0 -15190-3 0  9997,2 53864  53.2164 317.1084 0001703  94.8538 265.2649 15.08834664 58283,6917.897,95.438,540.94,538.584,0.0
53864.0,STARLINK-4779,PAYLOAD,2023-10-02 20:26:12,15.08838186,0.0001727,53.2168,313.8371,92.9342,267.1848,1.5224e-07,-2.86e-06,0.0,0 STARLINK-4779,1 53864U 22114AY  23275.85153430 -.00000286  00000-0  15224-6 0  9991,2 53864  53.2168 313.8371 0001727  92.9342 267.1848 15.08838186 58934,6917.886,95.438,540.946,538.556,0.0
53864.0,STARLINK-4779,PAYLOAD,2023-10-03 09:09:17,15.08850165,0.0001583,53.2149,311.4581,90.6874,269.43,0.00050908,7.826e-05,0.0,0 STARLINK-4779,1 53864U 22114AY  23276.38145295  .00007826  00000-0  50908-3 0  9991,2 53864  53.2149 311.4581 0001583  90.6874 269.4300 15.08850165 58473,6917.849,95.437,540.809,538.619,0.0
53864.0,STARLINK-4779,PAYLOAD,2023-10-04 09:00:04,15.08853762,0.0001564,53.2156,306.9973,92.1392,267.9779,0.00057,8.799e-05,0.0,0 STARLINK-4779,1 53864U 22114AY  23277.37505233  .00008799  00000-0  57000-3 0  9993,2 53864  53.2156 306.9973 0001564  92.1392 267.9779 15.08853762 58622,6917.838,95.437,540.785,538.621,0.0
53864.0,STARLINK-4779,PAYLOAD,2023-10-04 12:10:50,15.08857507,0.0001567,53.2157,306.4023,93.127,266.9902,0.00074532,0.00011599,0.0,0 STARLINK-4779,1 53864U 22114AY  23277.50753170  .00011599  00000-0  74532-3 0  9994,2 53864  53.2157 306.4023 0001567  93.1270 266.9902 15.08857507 59183,6917.827,95.436,540.776,538.608,0.0
53864.0,STARLINK-4779,PAYLOAD,2023-10-04 18:32:23,15.08849023,0.0001418,53.215,305.2135,92.762,267.3535,0.00056142,8.661e-05,0.0,0 STARLINK-4779,1 53864U 22114AY  23277.77249224  .00008661  00000-0  56142-3 0  9996,2 53864  53.2150 305.2135 0001418  92.7620 267.3535 15.08849023 58681,6917.853,95.437,540.699,538.737,0.0
53864.0,STARLINK-4779,PAYLOAD,2023-10-05 02:29:19,15.08841719,0.0002238,53.216,303.7264,98.6626,261.4619,0.00018381,2.638e-05,0.0,0 STARLINK-4779,1 53864U 22114AY  23278.10369536  .00002638  00000-0  18381-3 0  9994,2 53864  53.2160 303.7264 0002238  98.6626 261.4619 15.08841719 58738,6917.875,95.437,541.288,538.192,0.0
53864.0,STARLINK-4779,PAYLOAD,2023-10-05 08:50:51,15.08845652,0.0001721,53.2172,302.5389,90.523,269.5959,0.00013323,1.833e-05,0.0,0 STARLINK-4779,1 53864U 22114AY  23278.36865430  .00001833  00000-0  13323-3 0  9993,2 53864  53.2172 302.5389 0001721  90.5230 269.5959 15.08845652 59315,6917.863,95.437,540.919,538.538,0.0
53864.0,STARLINK-4779,PAYLOAD,2023-10-06 08:41:38,15.08844044,0.0001677,53.2164,298.078,91.0289,269.0895,0.00017265,2.461e-05,0.0,0 STARLINK-4779,1 53864U 22114AY  23279.36225548  .00002461  00000-0  17265-3 0  9991,2 53864  53.2164 298.0780 0001677  91.0289 269.0895 15.08844044 58924,6917.868,95.437,540.893,538.573,0.0
53864.0,STARLINK-4779,PAYLOAD,2023-10-06 18:13:57,15.08839611,0.0001595,53.216,296.2932,96.9587,263.1587,7.1741e-05,8.54e-06,0.0,0 STARLINK-4779,1 53864U 22114AY  23279.75969688  .00000854  00000-0  71741-4 0  9998,2 53864  53.2160 296.2932 0001595  96.9587 263.1587 15.08839611 59527,6917.882,95.438,540.85,538.643,0.0
53864.0,STARLINK-4779,PAYLOAD,2023-10-07 00:35:30,15.08837428,0.0001653,53.2166,295.1044,96.6213,263.4967,7.7402e-05,9.44e-06,0.0,0 STARLINK-4779,1 53864U 22114AY  23280.02465868  .00000944  00000-0  77402-4 0  9991,2 53864  53.2166 295.1044 0001653  96.6213 263.4967 15.08837428 59027,6917.888,95.438,540.897,538.61,0.0
